OBJECT_NAME,OBJECT_ID,EPOCH,MEAN_MOTION,ECCENTRICITY,INCLINATION,RA_OF_ASC_NODE,ARG_OF_PERICENTER,MEAN_ANOMALY,EPHEMERIS_TYPE,CLASSIFICATION_TYPE,NORAD_CAT_ID,ELEMENT_SET_NO,REV_AT_EPOCH,BSTAR,MEAN_MOTION_DOT,MEAN_MOTION_DDOT
LEMUR-1,2014-033AL,2026-06-03T22:54:19.067040,14.85188536,.0049645,97.7867,305.0553,120.8485,239.7628,0,U,40044,999,64350,.33051E-3,.284E-4,0
LEMUR-2-GREENBERG,2017-042N,2026-06-04T01:57:34.890048,15.30898208,.0009736,97.3813,335.7714,58.5218,301.6973,0,U,42837,999,48638,.58871E-3,.17546E-3,0
LEMUR-2-ANDIS,2017-042P,2026-06-04T00:14:26.858112,15.34291036,.0009273,97.3677,335.8397,58.6915,301.5235,0,U,42838,999,48643,.66856E-3,.22184E-3,0
LEMUR-2-MONSON,2017-042Q,2026-06-04T01:29:37.917888,15.27642419,.0007408,97.4073,335.7437,50.3120,309.8772,0,U,42839,999,48616,.6184E-3,.16668E-3,0
LEMUR-2-FURIAUS,2017-042R,2026-06-04T01:35:11.512608,15.29794594,.0008623,97.3769,333.7410,109.3571,250.8602,0,U,42840,999,48620,.6684E-3,.19261E-3,0
LEMUR-2-PETERG,2017-042S,2026-06-04T01:13:45.895296,15.33328268,.0004262,97.3987,340.0660,44.7504,315.4081,0,U,42841,999,48642,.86305E-3,.27793E-3,0
LEMUR-2-DEMBITZ,2017-042T,2026-06-04T00:30:23.559264,15.29879556,.0007762,97.3822,336.7095,71.1302,289.0780,0,U,42842,999,48633,.61064E-3,.17629E-3,0
LEMUR-2-ZACHARY,2017-042W,2026-06-04T01:58:13.669824,15.49086783,.000379,97.3609,346.4511,76.6861,283.4813,0,U,42845,999,48717,.88938E-3,.48415E-3,0
LEMUR-2-KADI,2018-014E,2026-06-04T00:01:13.493568,16.29437538,.0010752,97.4308,86.5413,218.5886,141.4640,0,U,43184,999,45900,.13547E-2,.5670531E-1,.25233E-5
LEMUR-2-AMANDA-SVANTE,2021-034B,2026-06-03T23:37:24.333024,15.33470071,.0000785,97.5760,232.9301,278.9604,81.1549,0,U,48269,999,27903,.10435E-2,.33789E-3,0
LEMUR-2-SPECIAL-K,2021-034F,2026-06-03T19:54:35.303328,15.60747788,.00025093,97.5655,240.7597,235.5692,124.5328,0,U,48273,999,27960,.16555781E-2,.139635E-2,0
LEMUR-2-EMBRIONOVIS,2023-084AQ,2026-06-04T04:25:19.767648,15.37210087,.000869,97.6283,298.8891,9.7326,350.4085,0,U,56970,999,16568,.40876E-3,.14838E-3,0
LEMUR-2-DEVERILL-M-T,2023-100F,2026-06-04T00:57:38.466720,15.39072057,.0007506,99.4476,190.0097,90.1093,270.1006,0,U,57391,999,15922,.72838E-3,.28179E-3,0
LEMUR-2-BASS,2023-174D,2026-06-04T01:03:58.802112,15.42640730,.0006708,97.3846,239.5780,205.8379,154.2535,0,U,58259,999,14333,.43878E-3,.19056E-3,0
LEMUR-2-JK0903EM1407,2023-174CJ,2026-06-03T05:03:47.623968,15.50932470,.0005853,97.3911,244.2978,157.9931,202.1574,0,U,58336,999,14356,.52485E-3,.30393E-3,0
LEMUR-2-MJR092620,2023-174CN,2026-06-03T05:31:42.864672,15.44335090,.0006697,97.3972,244.0089,158.4344,201.7188,0,U,58340,999,14349,.47992E-3,.22083E-3,0
LEMUR-2-NIMBUS2000,2024-022A,2026-06-03T13:28:37.536384,15.39536048,.00096189,97.4115,4.3959,158.4681,201.6971,0,U,58899,999,13017,.46642509E-3,.18293E-3,0
LEMUR-2-VALHALLA,2024-022B,2026-06-03T21:07:16.182624,15.39247422,.00102635,97.4114,4.7158,153.7168,206.4601,0,U,58900,999,13022,.44204405E-3,.17171E-3,0
LEMUR-2-OBA-NI-JESU,2024-022D,2026-06-03T14:01:36.563808,16.00847079,.00044232,97.3768,18.6252,171.0894,189.0464,0,U,58902,999,13114,.13245484E-2,.702278E-2,.22995525E-3
LEMUR-2-CAEL,2024-022E,2026-06-04T00:44:29.505120,15.40523050,.0008918,97.4097,5.7814,136.5668,223.6282,0,U,58903,999,13031,.45785E-3,.18545E-3,0
LEMUR-2-JOHNNYTRUONG,2024-043BA,2026-06-02T17:12:06.652224,15.59343752,.00042672,97.5373,304.5368,221.4985,138.5947,0,U,59146,999,12578,.52884291E-3,.41716E-3,0
LEMUR-2-TOMATOKECHUP,2024-149D,2026-06-03T05:31:21.546336,15.35726512,.0000172,97.3801,236.2448,277.6232,82.4992,0,U,60471,999,10002,.35632E-3,.12306E-3,0
LEMUR-2-STELLA,2024-149BT,2026-06-03T18:38:33.941472,15.11502384,.00019303,97.6744,237.1777,107.4795,252.6646,0,U,60533,999,9847,.78876653E-3,.13306E-3,0
LEMUR-2-MARHISYAM,2024-149BW,2026-06-03T05:20:23.402112,15.10956429,.0003024,97.6883,237.0548,140.8634,219.2814,0,U,60536,999,9837,.77357E-3,.12853E-3,0
LEMUR-2-AHMED-ASRAR,2024-149DN,2026-06-03T11:14:29.862816,15.12381793,.00028632,97.6997,239.3410,73.6698,286.4847,0,U,60576,999,9849,.78265336E-3,.1353E-3,0
LEMUR-2-LLOYD,2024-149DP,2026-06-03T20:20:14.559936,15.08964794,.00040896,97.6741,235.9718,177.6950,182.4298,0,U,60577,999,9838,.79198918E-3,.12459E-3,0
LEMUR-2-SQUIRRELCOMM,2024-149DQ,2026-06-03T04:18:37.222272,15.06978397,.0006694,97.6702,235.1362,100.1795,260.0188,0,U,60578,999,9829,.51868E-3,.7706E-4,0
LEMUR-2-SIERRINI,2024-149DR,2026-06-03T04:14:39.461568,15.10632468,.00046387,97.6846,236.7107,210.6657,149.4302,0,U,60579,999,9834,.80802606E-3,.13311E-3,0
LEMUR-2-WILSON,2025-009CP,2026-06-03T04:11:24.620928,14.95104153,.00049873,97.7030,232.8857,88.4180,271.7612,0,U,62694,999,7526,.30154459E-3,.325E-4,0
LEMUR-2-STAR-FOX,2025-009CR,2026-06-04T00:55:58.401696,15.02290827,.0002456,97.6940,236.7443,148.7165,211.4206,0,U,62696,999,7558,.69849E-3,.917E-4,0
